IRIDIUM 166             
1 43570U 18061B   25249.89530759 -.00000053  00000+0 -26082-4 0  9994
2 43570  86.4046 175.1321 0002318  82.1943 277.9516 14.34216439372792
IRIDIUM 158             
1 43571U 18061C   25249.86359291 -.00000002  00000+0 -79433-5 0  9995
2 43571  86.4044 175.1551 0002031  88.4459 271.6970 14.34215764372750
IRIDIUM 165             
1 43572U 18061D   25249.88896567  .00000319  00000+0  10676-3 0  9991
2 43572  86.4046 175.1853 0002327  82.0433 278.1027 14.34217350372789
IRIDIUM 155             
1 43573U 18061E   25249.78114056  .00000144  00000+0  44394-4 0  9998
2 43573  86.4040 175.1138 0002369  88.9254 271.2213 14.34216542372730
IRIDIUM 154             
1 43574U 18061F   25249.83188464  .00000011  00000+0 -32503-5 0  9993
2 43574  86.4045 175.2118 0002272  82.9731 277.1723 14.34220152372791
IRIDIUM 163             
1 43575U 18061G   25249.88262143  .00000191  00000+0  60993-4 0  9997
2 43575  86.4043 175.1150 0002020  87.1616 272.9811 14.34217189372770
IRIDIUM 156             
1 43576U 18061H   25249.85725181  .00000017  00000+0 -88112-6 0  9994
2 43576  86.4045 175.1329 0002374  89.2195 270.9273 14.34216382372761
IRIDIUM 164             
1 43577U 18061J   25249.76845575  .00000441  00000+0  15053-3 0  9996
2 43577  86.4044 175.2053 0002373  80.1979 279.9485 14.34217554372794
